start=new Date('2021-12-12T00:00:00.000Z').valueOf();
sats=[{"MEAN_MOTION_DDOT":"0.0000000000000","PERIOD":"91.533","REF_FRAME":"TEME","TLE_LINE1":"1 49444U 21104AN  21345.91667824 -.00001920  00000-0 -92462-5 0  9993","OBJECT_NAME":"STARLINK-3126","PERIAPSIS":"348.142","RCS_SIZE":"LARGE","ARG_OF_PERICENTER":"34.4767","INCLINATION":"53.2173","MEAN_MOTION_DOT":"-0.00001920","REV_AT_EPOCH":"370","ECCENTRICITY":"0.00023830","TLE_LINE2":"2 49444  53.2173 352.5332 0002383  34.4767 198.9934 15.73205147  3706","BSTAR":"-0.00000924620000","MEAN_ELEMENT_THEORY":"SGP4","TIME_SYSTEM":"UTC","FILE":"3237650","EPHEMERIS_TYPE":"0","EPOCH":"2021-12-11T22:00:00.999936","GP_ID":"191524263","NORAD_CAT_ID":"49444","OBJECT_TYPE":"PAYLOAD","COUNTRY_CODE":"US","LAUNCH_DATE":"2021-11-13","SITE":"AFETR","CLASSIFICATION_TYPE":"U","RA_OF_ASC_NODE":"352.5332","ELEMENT_SET_NO":"999","MEAN_MOTION":"15.73205147","CENTER_NAME":"EARTH","OBJECT_ID":"2021-104AN","MEAN_ANOMALY":"198.9934","APOAPSIS":"351.349","DECAY_DATE":null,"SEMIMAJOR_AXIS":"6727.880"},{"REV_AT_EPOCH":"370","MEAN_MOTION_DOT":"0.00063332","ECCENTRICITY":"0.00021220","TLE_LINE2":"2 49445  53.2190 352.5257 0002122  20.1582 219.1643 15.73167002  3700","BSTAR":"0.00045288000000","MEAN_ELEMENT_THEORY":"SGP4","TIME_SYSTEM":"UTC","EPHEMERIS_TYPE":"0","FILE":"3237650","EPOCH":"2021-12-11T22:00:00.999936","GP_ID":"191523703","MEAN_MOTION_DDOT":"0.0000000000000","PERIOD":"91.535","REF_FRAME":"TEME","TLE_LINE1":"1 49445U 21104AP  21345.91667824  .00063332  00000-0  45288-3 0  9999","OBJECT_NAME":"STARLINK-3122","PERIAPSIS":"348.427","RCS_SIZE":"LARGE","ARG_OF_PERICENTER":"20.1582","INCLINATION":"53.2190","ELEMENT_SET_NO":"999","MEAN_MOTION":"15.73167002","CENTER_NAME":"EARTH","OBJECT_ID":"2021-104AP","MEAN_ANOMALY":"219.1643","APOAPSIS":"351.282","DECAY_DATE":null,"SEMIMAJOR_AXIS":"6727.989","NORAD_CAT_ID":"49445","OBJECT_TYPE":"PAYLOAD","COUNTRY_CODE":"US","LAUNCH_DATE":"2021-11-13","SITE":"AFETR","CLASSIFICATION_TYPE":"U","RA_OF_ASC_NODE":"352.5257"},{"RCS_SIZE":"LARGE","ARG_OF_PERICENTER":"26.7287","INCLINATION":"53.2190","OBJECT_NAME":"STARLINK-3099","PERIAPSIS":"348.126","TLE_LINE1":"1 49446U 21104AQ  21345.91667824  .00034499  00000-0  24892-3 0  9990","MEAN_MOTION_DDOT":"0.0000000000000","PERIOD":"91.532","REF_FRAME":"TEME","GP_ID":"191523887","FILE":"3237650","EPHEMERIS_TYPE":"0","EPOCH":"2021-12-11T22:00:00.999936","ECCENTRICITY":"0.00023170","TLE_LINE2":"2 49446  53.2190 352.5353 0002317  26.7287 207.8654 15.73226259  3704","BSTAR":"0.00024892000000","MEAN_ELEMENT_THEORY":"SGP4","TIME_SYSTEM":"UTC","MEAN_MOTION_DOT":"0.00034499","REV_AT_EPOCH":"370","CLASSIFICATION_TYPE":"U","RA_OF_ASC_NODE":"352.5353","LAUNCH_DATE":"2021-11-13","SITE":"AFETR","OBJECT_TYPE":"PAYLOAD","COUNTRY_CODE":"US","NORAD_CAT_ID":"49446","APOAPSIS":"351.244","DECAY_DATE":null,"SEMIMAJOR_AXIS":"6727.820","MEAN_ANOMALY":"207.8654","MEAN_MOTION":"15.73226259","ELEMENT_SET_NO":"999","CENTER_NAME":"EARTH","OBJECT_ID":"2021-104AQ"},{"EPOCH":"2021-12-11T22:00:00.999936","EPHEMERIS_TYPE":"0","FILE":"3237650","GP_ID":"191524079","REV_AT_EPOCH":"370","MEAN_MOTION_DOT":"0.00064654","TIME_SYSTEM":"UTC","MEAN_ELEMENT_THEORY":"SGP4","BSTAR":"0.00046136000000","TLE_LINE2":"2 49447  53.2199 352.5253 0002366  28.4002 213.6493 15.73207486  3708","ECCENTRICITY":"0.00023660","PERIAPSIS":"348.147","OBJECT_NAME":"STARLINK-3115","INCLINATION":"53.2199","ARG_OF_PERICENTER":"28.4002","RCS_SIZE":"LARGE","REF_FRAME":"TEME","PERIOD":"91.533","MEAN_MOTION_DDOT":"0.0000000000000","TLE_LINE1":"1 49447U 21104AR  21345.91667824  .00064654  00000-0  46136-3 0  9992","MEAN_ANOMALY":"213.6493","SEMIMAJOR_AXIS":"6727.874","DECAY_DATE":null,"APOAPSIS":"351.331","OBJECT_ID":"2021-104AR","CENTER_NAME":"EARTH","ELEMENT_SET_NO":"999","MEAN_MOTION":"15.73207486","SITE":"AFETR","LAUNCH_DATE":"2021-11-13","RA_OF_ASC_NODE":"352.5253","CLASSIFICATION_TYPE":"U","NORAD_CAT_ID":"49447","COUNTRY_CODE":"US","OBJECT_TYPE":"PAYLOAD"},{"INCLINATION":"53.2173","RCS_SIZE":"LARGE","ARG_OF_PERICENTER":"29.5873","PERIAPSIS":"348.205","OBJECT_NAME":"STARLINK-3097","TLE_LINE1":"1 49448U 21104AS  21345.91667824 -.00001951  00000-0 -94737-5 0  9998","REF_FRAME":"TEME","MEAN_MOTION_DDOT":"0.0000000000000","PERIOD":"91.533","GP_ID":"191524625","FILE":"3237650","EPHEMERIS_TYPE":"0","EPOCH":"2021-12-11T22:00:00.999936","MEAN_ELEMENT_THEORY":"SGP4","BSTAR":"-0.00000947370000","TIME_SYSTEM":"UTC","ECCENTRICITY":"0.00022900","TLE_LINE2":"2 49448  53.2173 352.5237 0002290  29.5873 208.5666 15.73205147  3704","REV_AT_EPOCH":"370","MEAN_MOTION_DOT":"-0.00001951","CLASSIFICATION_TYPE":"U","RA_OF_ASC_NODE":"352.5237","LAUNCH_DATE":"2021-11-13","SITE":"AFETR","OBJECT_TYPE":"PAYLOAD","COUNTRY_CODE":"US","NORAD_CAT_ID":"49448","SEMIMAJOR_AXIS":"6727.880","APOAPSIS":"351.286","DECAY_DATE":null,"MEAN_ANOMALY":"208.5666","OBJECT_ID":"2021-104AS","CENTER_NAME":"EARTH","MEAN_MOTION":"15.73205147","ELEMENT_SET_NO":"999"},{"TLE_LINE1":"1 49449U 21104AT  21345.91667824 -.00001752  00000-0 -80493-5 0  9992","MEAN_MOTION_DDOT":"0.0000000000000","PERIOD":"91.533","REF_FRAME":"TEME","RCS_SIZE":"LARGE","ARG_OF_PERICENTER":"33.5166","INCLINATION":"53.2173","OBJECT_NAME":"STARLINK-3137","PERIAPSIS":"348.019","ECCENTRICITY":"0.00025670","TLE_LINE2":"2 49449  53.2173 352.5147 0002567  33.5166 209.3211 15.73205028  3705","BSTAR":"-0.00000804930000","MEAN_ELEMENT_THEORY":"SGP4","TIME_SYSTEM":"UTC","REV_AT_EPOCH":"370","MEAN_MOTION_DOT":"-0.00001752","GP_ID":"191523341","FILE":"3237650","EPHEMERIS_TYPE":"0","EPOCH":"2021-12-11T22:00:00.999936","OBJECT_TYPE":"PAYLOAD","COUNTRY_CODE":"US","NORAD_CAT_ID":"49449","CLASSIFICATION_TYPE":"U","RA_OF_ASC_NODE":"352.5147","LAUNCH_DATE":"2021-11-13","SITE":"AFETR","MEAN_MOTION":"15.73205028","ELEMENT_SET_NO":"999","OBJECT_ID":"2021-104AT","CENTER_NAME":"EARTH","APOAPSIS":"351.473","DECAY_DATE":null,"SEMIMAJOR_AXIS":"6727.881","MEAN_ANOMALY":"209.3211"},{"MEAN_ELEMENT_THEORY":"SGP4","BSTAR":"-0.00000845340000","TIME_SYSTEM":"UTC","ECCENTRICITY":"0.00021630","TLE_LINE2":"2 49450  53.2173 352.5180 0002163  35.3432 205.6210 15.73205067  3703","REV_AT_EPOCH":"370","MEAN_MOTION_DOT":"-0.00001808","GP_ID":"191523526","EPHEMERIS_TYPE":"0","FILE":"3237650","EPOCH":"2021-12-11T22:00:00.999936","TLE_LINE1":"1 49450U 21104AU  21345.91667824 -.00001808  00000-0 -84534-5 0  9996","REF_FRAME":"TEME","MEAN_MOTION_DDOT":"0.0000000000000","PERIOD":"91.533","INCLINATION":"53.2173","RCS_SIZE":"LARGE","ARG_OF_PERICENTER":"35.3432","PERIAPSIS":"348.290","OBJECT_NAME":"STARLINK-3127","CENTER_NAME":"EARTH","OBJECT_ID":"2021-104AU","ELEMENT_SET_NO":"999","MEAN_MOTION":"15.73205067","SEMIMAJOR_AXIS":"6727.881","APOAPSIS":"351.201","DECAY_DATE":null,"MEAN_ANOMALY":"205.6210","OBJECT_TYPE":"PAYLOAD","COUNTRY_CODE":"US","NORAD_CAT_ID":"49450","CLASSIFICATION_TYPE":"U","RA_OF_ASC_NODE":"352.5180","LAUNCH_DATE":"2021-11-13","SITE":"AFETR"},{"MEAN_MOTION_DDOT":"0.0000000000000","PERIOD":"91.533","REF_FRAME":"TEME","TLE_LINE1":"1 49451U 21104AV  21345.91667824 -.00001619  00000-0 -71012-5 0  9994","OBJECT_NAME":"STARLINK-3125","PERIAPSIS":"348.065","RCS_SIZE":"LARGE","ARG_OF_PERICENTER":"28.1532","INCLINATION":"53.2173","REV_AT_EPOCH":"370","MEAN_MOTION_DOT":"-0.00001619","ECCENTRICITY":"0.00024990","TLE_LINE2":"2 49451  53.2173 352.5128 0002499  28.1532 215.6211 15.73204967  3709","MEAN_ELEMENT_THEORY":"SGP4","BSTAR":"-0.00000710120000","TIME_SYSTEM":"UTC","FILE":"3237650","EPHEMERIS_TYPE":"0","EPOCH":"2021-12-11T22:00:00.999936","GP_ID":"191524441","NORAD_CAT_ID":"49451","OBJECT_TYPE":"PAYLOAD","COUNTRY_CODE":"US","LAUNCH_DATE":"2021-11-13","SITE":"AFETR","CLASSIFICATION_TYPE":"U","RA_OF_ASC_NODE":"352.5128","ELEMENT_SET_NO":"999","MEAN_MOTION":"15.73204967","OBJECT_ID":"2021-104AV","CENTER_NAME":"EARTH","MEAN_ANOMALY":"215.6211","APOAPSIS":"351.427","DECAY_DATE":null,"SEMIMAJOR_AXIS":"6727.881"},{"EPHEMERIS_TYPE":"0","FILE":"3237650","EPOCH":"2021-12-11T22:00:00.999936","GP_ID":"191524264","REV_AT_EPOCH":"370","MEAN_MOTION_DOT":"-0.00001018","ECCENTRICITY":"0.00024250","TLE_LINE2":"2 49452  53.2173 352.4779 0002425  41.5276 223.9465 15.73204585  3703","MEAN_ELEMENT_THEORY":"SGP4","BSTAR":"-0.00000282310000","TIME_SYSTEM":"UTC","OBJECT_NAME":"STARLINK-3150","PERIAPSIS":"348.116","RCS_SIZE":"LARGE","ARG_OF_PERICENTER":"41.5276","INCLINATION":"53.2173","MEAN_MOTION_DDOT":"0.0000000000000","PERIOD":"91.533","REF_FRAME":"TEME","TLE_LINE1":"1 49452U 21104AW  21345.91667824 -.00001018  00000-0 -28231-5 0  9993","MEAN_ANOMALY":"223.9465","APOAPSIS":"351.379","DECAY_DATE":null,"SEMIMAJOR_AXIS":"6727.882","ELEMENT_SET_NO":"999","MEAN_MOTION":"15.73204585","OBJECT_ID":"2021-104AW","CENTER_NAME":"EARTH","LAUNCH_DATE":"2021-11-13","SITE":"AFETR","CLASSIFICATION_TYPE":"U","RA_OF_ASC_NODE":"352.4779","NORAD_CAT_ID":"49452","OBJECT_TYPE":"PAYLOAD","COUNTRY_CODE":"US"},{"SITE":"AFETR","LAUNCH_DATE":"2021-11-13","RA_OF_ASC_NODE":"352.5071","CLASSIFICATION_TYPE":"U","NORAD_CAT_ID":"49453","COUNTRY_CODE":"US","OBJECT_TYPE":"PAYLOAD","MEAN_ANOMALY":"209.9338","SEMIMAJOR_AXIS":"6727.881","DECAY_DATE":null,"APOAPSIS":"351.498","CENTER_NAME":"EARTH","OBJECT_ID":"2021-104AX","MEAN_MOTION":"15.73204958","ELEMENT_SET_NO":"999","PERIAPSIS":"347.994","OBJECT_NAME":"STARLINK-3129","INCLINATION":"53.2173","ARG_OF_PERICENTER":"36.6508","RCS_SIZE":"LARGE","REF_FRAME":"TEME","PERIOD":"91.533","MEAN_MOTION_DDOT":"0.0000000000000","TLE_LINE1":"1 49453U 21104AX  21345.91667824 -.00001626  00000-0 -71501-5 0  9997","EPOCH":"2021-12-11T22:00:00.999936","FILE":"3237650","EPHEMERIS_TYPE":"0","GP_ID":"191523704","MEAN_MOTION_DOT":"-0.00001626","REV_AT_EPOCH":"370","TIME_SYSTEM":"UTC","MEAN_ELEMENT_THEORY":"SGP4","BSTAR":"-0.00000715010000","TLE_LINE2":"2 49453  53.2173 352.5071 0002604  36.6508 209.9338 15.73204958  3709","ECCENTRICITY":"0.00026040"}];
